{
  "type": "FeatureCollection",
  "features": [
    {
      "type": "Feature",
      "properties": {
        "norad_id": 30494,
        "name": "FENGYUN 1C DEB",
        "group": "fengyun-1c-debris",
        "lat": 73.34713512691218,
        "lon": -14.29274399034268,
        "alt_km": 1082.0667670897055,
        "timestamp": "2025-12-09T09:46:47.922472+00:00",
        "meta_object_name": "FENGYUN 1C DEB",
        "meta_object_id": "1999-025AHG",
        "meta_epoch": "2025-12-07T01:41:28.106016",
        "meta_mean_motion": 13.793444,
        "meta_eccentricity": 0.01856403,
        "meta_inclination": 99.2827,
        "meta_ra_of_asc_node": 16.5615,
        "meta_arg_of_pericenter": 237.1866,
        "meta_mean_anomaly": 121.1289,
        "meta_ephemeris_type": 0,
        "meta_classification_type": "U",
        "meta_norad_cat_id": 30494,
        "meta_element_set_no": 999,
        "meta_rev_at_epoch": 94408,
        "meta_bstar": 0.0022953842,
        "meta_mean_motion_dot": 2.638e-05,
        "meta_mean_motion_ddot": 0,
        "tle_line1": "1 30494U 99025AHG 25341.07046419  .00002638  00000+0  22954-2 0  9993",
        "tle_line2": "2 30494  99.2827  16.5615 0185640 237.1866 121.1289 13.79344400944084"
      },
      "geometry": {
        "type": "Point",
        "coordinates": [
          -14.29274399034268,
          73.34713512691218
        ]
      }
    },
    {
      "type": "Feature",
      "properties": {
        "norad_id": 30495,
        "name": "FENGYUN 1C DEB",
        "group": "fengyun-1c-debris",
        "lat": 16.440544238492276,
        "lon": 68.10130264431545,
        "alt_km": 1364.8592236273698,
        "timestamp": "2025-12-09T09:46:47.922485+00:00",
        "meta_object_name": "FENGYUN 1C DEB",
        "meta_object_id": "1999-025AHH",
        "meta_epoch": "2025-12-07T16:52:58.296000",
        "meta_mean_motion": 12.94355342,
        "meta_eccentricity": 0.05967428,
        "meta_inclination": 102.2606,
        "meta_ra_of_asc_node": 69.8716,
        "meta_arg_of_pericenter": 276.9515,
        "meta_mean_anomaly": 76.4096,
        "meta_ephemeris_type": 0,
        "meta_classification_type": "U",
        "meta_norad_cat_id": 30495,
        "meta_element_set_no": 999,
        "meta_rev_at_epoch": 88608,
        "meta_bstar": 0.0054623354,
        "meta_mean_motion_dot": 3.361e-05,
        "meta_mean_motion_ddot": 0,
        "tle_line1": "1 30495U 99025AHH 25341.70345250  .00003361  00000+0  54623-2 0  9991",
        "tle_line2": "2 30495 102.2606  69.8716 0596742 276.9515  76.4096 12.94355342886085"
      },
      "geometry": {
        "type": "Point",
        "coordinates": [
          68.10130264431545,
          16.440544238492276
        ]
      }
    },
    {
      "type": "Feature",
      "properties": {
        "norad_id": 30496,
        "name": "FENGYUN 1C DEB",
        "group": "fengyun-1c-debris",
        "lat": 8.842376531179394,
        "lon": -112.52400988948011,
        "alt_km": 599.7263198773699,
        "timestamp": "2025-12-09T09:46:47.922496+00:00",
        "meta_object_name": "FENGYUN 1C DEB",
        "meta_object_id": "1999-025AHJ",
        "meta_epoch": "2025-12-08T06:25:02.070048",
        "meta_mean_motion": 14.94168932,
        "meta_eccentricity": 0.01301407,
        "meta_inclination": 98.7828,
        "meta_ra_of_asc_node": 247.5799,
        "meta_arg_of_pericenter": 111.7663,
        "meta_mean_anomaly": 249.7462,
        "meta_ephemeris_type": 0,
        "meta_classification_type": "U",
        "meta_norad_cat_id": 30496,
        "meta_element_set_no": 999,
        "meta_rev_at_epoch": 1077,
        "meta_bstar": 0.00063322731,
        "meta_mean_motion_dot": 7.945e-05,
        "meta_mean_motion_ddot": 0,
        "tle_line1": "1 30496U 99025AHJ 25342.26738507  .00007945  00000+0  63323-3 0  9995",
        "tle_line2": "2 30496  98.7828 247.5799 0130140 111.7663 249.7462 14.94168932 10779"
      },
      "geometry": {
        "type": "Point",
        "coordinates": [
          -112.52400988948011,
          8.842376531179394
        ]
      }
    },
    {
      "type": "Feature",
      "properties": {
        "norad_id": 30498,
        "name": "FENGYUN 1C DEB",
        "group": "fengyun-1c-debris",
        "lat": 71.47847107595969,
        "lon": -116.47212423354135,
        "alt_km": 825.9025115970935,
        "timestamp": "2025-12-09T09:46:47.922507+00:00",
        "meta_object_name": "FENGYUN 1C DEB",
        "meta_object_id": "1999-025AHL",
        "meta_epoch": "2025-12-08T09:25:18.244128",
        "meta_mean_motion": 14.0602458,
        "meta_eccentricity": 0.01048685,
        "meta_inclination": 99.2369,
        "meta_ra_of_asc_node": 33.4324,
        "meta_arg_of_pericenter": 167.561,
        "meta_mean_anomaly": 205.1056,
        "meta_ephemeris_type": 0,
        "meta_classification_type": "U",
        "meta_norad_cat_id": 30498,
        "meta_element_set_no": 999,
        "meta_rev_at_epoch": 95708,
        "meta_bstar": 0.0024232485,
        "meta_mean_motion_dot": 4.133e-05,
        "meta_mean_motion_ddot": 0,
        "tle_line1": "1 30498U 99025AHL 25342.39257227  .00004133  00000+0  24232-2 0  9997",
        "tle_line2": "2 30498  99.2369  33.4324 0104868 167.5610 205.1056 14.06024580957084"
      },
      "geometry": {
        "type": "Point",
        "coordinates": [
          -116.47212423354135,
          71.47847107595969
        ]
      }
    },
    {
      "type": "Feature",
      "properties": {
        "norad_id": 30500,
        "name": "FENGYUN 1C DEB",
        "group": "fengyun-1c-debris",
        "lat": 78.51323162911504,
        "lon": -53.37045737089734,
        "alt_km": 759.3582093252508,
        "timestamp": "2025-12-09T09:46:47.922517+00:00",
        "meta_object_name": "FENGYUN 1C DEB",
        "meta_object_id": "1999-025AHN",
        "meta_epoch": "2025-12-07T12:25:41.904768",
        "meta_mean_motion": 14.25099595,
        "meta_eccentricity": 0.00654132,
        "meta_inclination": 99.0728,
        "meta_ra_of_asc_node": 72.8338,
        "meta_arg_of_pericenter": 131.1513,
        "meta_mean_anomaly": 356.9607,
        "meta_ephemeris_type": 0,
        "meta_classification_type": "U",
        "meta_norad_cat_id": 30500,
        "meta_element_set_no": 999,
        "meta_rev_at_epoch": 96607,
        "meta_bstar": 0.0042895553,
        "meta_mean_motion_dot": 0.00010254,
        "meta_mean_motion_ddot": 0,
        "tle_line1": "1 30500U 99025AHN 25341.51784612  .00010254  00000+0  42896-2 0  9994",
        "tle_line2": "2 30500  99.0728  72.8338 0065413 131.1513 356.9607 14.25099595966073"
      },
      "geometry": {
        "type": "Point",
        "coordinates": [
          -53.37045737089734,
          78.51323162911504
        ]
      }
    },
    {
      "type": "Feature",
      "properties": {
        "norad_id": 30501,
        "name": "FENGYUN 1C DEB",
        "group": "fengyun-1c-debris",
        "lat": 41.88117184087801,
        "lon": -34.15261159718045,
        "alt_km": 832.773183595662,
        "timestamp": "2025-12-09T09:46:47.922528+00:00",
        "meta_object_name": "FENGYUN 1C DEB",
        "meta_object_id": "1999-025AHP",
        "meta_epoch": "2025-12-08T21:55:34.208832",
        "meta_mean_motion": 14.25294423,
        "meta_eccentricity": 0.00406,
        "meta_inclination": 99.0839,
        "meta_ra_of_asc_node": 333.584,
        "meta_arg_of_pericenter": 214.0786,
        "meta_mean_anomaly": 175.7599,
        "meta_ephemeris_type": 0,
        "meta_classification_type": "U",
        "meta_norad_cat_id": 30501,
        "meta_element_set_no": 999,
        "meta_rev_at_epoch": 96865,
        "meta_bstar": 0.0021421821,
        "meta_mean_motion_dot": 5.042e-05,
        "meta_mean_motion_ddot": 0,
        "tle_line1": "1 30501U 99025AHP 25342.91359038  .00005042  00000+0  21422-2 0  9991",
        "tle_line2": "2 30501  99.0839 333.5840 0040600 214.0786 175.7599 14.25294423968656"
      },
      "geometry": {
        "type": "Point",
        "coordinates": [
          -34.15261159718045,
          41.88117184087801
        ]
      }
    },
    {
      "type": "Feature",
      "properties": {
        "norad_id": 30503,
        "name": "FENGYUN 1C DEB",
        "group": "fengyun-1c-debris",
        "lat": 8.606370392762502,
        "lon": -174.59080608627937,
        "alt_km": 840.393623195765,
        "timestamp": "2025-12-09T09:46:47.922539+00:00",
        "meta_object_name": "FENGYUN 1C DEB",
        "meta_object_id": "1999-025AHR",
        "meta_epoch": "2025-12-08T20:13:38.823744",
        "meta_mean_motion": 14.16119172,
        "meta_eccentricity": 0.00083344,
        "meta_inclination": 99.2047,
        "meta_ra_of_asc_node": 186.2322,
        "meta_arg_of_pericenter": 278.6155,
        "meta_mean_anomaly": 92.9146,
        "meta_ephemeris_type": 0,
        "meta_classification_type": "U",
        "meta_norad_cat_id": 30503,
        "meta_element_set_no": 999,
        "meta_rev_at_epoch": 97291,
        "meta_bstar": 0.00050959926,
        "meta_mean_motion_dot": 9.6e-06,
        "meta_mean_motion_ddot": 0,
        "tle_line1": "1 30503U 99025AHR 25342.84281046  .00000960  00000+0  50960-3 0  9992",
        "tle_line2": "2 30503  99.2047 186.2322 0008334 278.6155  92.9146 14.16119172972912"
      },
      "geometry": {
        "type": "Point",
        "coordinates": [
          -174.59080608627937,
          8.606370392762502
        ]
      }
    }
  ]
}